{"type": "FeatureCollection", "features": [ {"type": "Feature", "properties": {"norad_id": 66415, "name": "HULIANWANG DIGUI 13D", "group": "last-30-days", "lat": 45.198908871971554, "lon": -1.2460359831121879, "alt_km": 808.4586733880042, "timestamp": "2025-12-03T10:52:56.221193+00:00", "meta": {"OBJECT_NAME": "HULIANWANG DIGUI 13D", "OBJECT_ID": "2025-258D", "EPOCH": "2025-12-02T16:01:54.737760", "MEAN_MOTION": 14.23495801, "ECCENTRICITY": 0.00133351, "INCLINATION": 50.0042, "RA_OF_ASC_NODE": 304.3491, "ARG_OF_PERICENTER": 327.7923, "MEAN_ANOMALY": 32.2174, "EPHEMERIS_TYPE": 0, "CLASSIFICATION_TYPE": "U", "NORAD_CAT_ID": 66415, "ELEMENT_SET_NO": 999, "REV_AT_EPOCH": 322, "BSTAR": 0.00013389716, "MEAN_MOTION_DOT": 1.47e-06, "MEAN_MOTION_DDOT": 0}, "tle": {"line1": "1 66415U 25258D   25336.66799465  .00000147  00000+0  13390-3 0  9995", "line2": "2 66415  50.0042 304.3491 0013335 327.7923  32.2174 14.23495801  3220"}}, "geometry": {"type": "Point", "coordinates": [-1.2460359831121879, 45.198908871971554]}}, {"type": "Feature", "properties": {"norad_id": 66416, "name": "HULIANWANG DIGUI 13E", "group": "last-30-days", "lat": 33.511341466376, "lon": -25.139093413101747, "alt_km": 806.6235950820183, "timestamp": "2025-12-03T10:52:56.221205+00:00", "meta": {"OBJECT_NAME": "HULIANWANG DIGUI 13E", "OBJECT_ID": "2025-258E", "EPOCH": "2025-12-02T04:20:20.565312", "MEAN_MOTION": 14.23468154, "ECCENTRICITY": 0.0012751, "INCLINATION": 50.0045, "RA_OF_ASC_NODE": 306.4445, "ARG_OF_PERICENTER": 327.4493, "MEAN_ANOMALY": 32.5632, "EPHEMERIS_TYPE": 0, "CLASSIFICATION_TYPE": "U", "NORAD_CAT_ID": 66416, "ELEMENT_SET_NO": 999, "REV_AT_EPOCH": 315, "BSTAR": 0.00010445686, "MEAN_MOTION_DOT": 8e-07, "MEAN_MOTION_DDOT": 0}, "tle": {"line1": "1 66416U 25258E   25336.18079358  .00000080  00000+0  10446-3 0  9990", "line2": "2 66416  50.0045 306.4445 0012751 327.4493  32.5632 14.23468154  3151"}}, "geometry": {"type": "Point", "coordinates": [-25.139093413101747, 33.511341466376]}}, {"type": "Feature", "properties": {"norad_id": 66417, "name": "HULIANWANG DIGUI 13F", "group": "last-30-days", "lat": 37.759545029241266, "lon": -18.379007362972892, "alt_km": 807.3373437328382, "timestamp": "2025-12-03T10:52:56.221216+00:00", "meta": {"OBJECT_NAME": "HULIANWANG DIGUI 13F", "OBJECT_ID": "2025-258F", "EPOCH": "2025-12-02T16:06:02.731680", "MEAN_MOTION": 14.23476506, "ECCENTRICITY": 0.00123452, "INCLINATION": 49.9999, "RA_OF_ASC_NODE": 304.3474, "ARG_OF_PERICENTER": 327.3624, "MEAN_ANOMALY": 32.6525, "EPHEMERIS_TYPE": 0, "CLASSIFICATION_TYPE": "U", "NORAD_CAT_ID": 66417, "ELEMENT_SET_NO": 999, "REV_AT_EPOCH": 322, "BSTAR": 0.00012400114, "MEAN_MOTION_DOT": 1.25e-06, "MEAN_MOTION_DDOT": 0}, "tle": {"line1": "1 66417U 25258F   25336.67086495  .00000125  00000+0  12400-3 0  9997", "line2": "2 66417  49.9999 304.3474 0012345 327.3624  32.6525 14.23476506  3220"}}, "geometry": {"type": "Point", "coordinates": [-18.379007362972892, 37.759545029241266]}}, {"type": "Feature", "properties": {"norad_id": 66418, "name": "HULIANWANG DIGUI 13G", "group": "last-30-days", "lat": 47.59277129356446, "lon": 7.83394485643234, "alt_km": 809.7668570818505, "timestamp": "2025-12-03T10:52:56.221228+00:00", "meta": {"OBJECT_NAME": "HULIANWANG DIGUI 13G", "OBJECT_ID": "2025-258G", "EPOCH": "2025-12-02T14:18:55.535040", "MEAN_MOTION": 14.23487797, "ECCENTRICITY": 0.00124567, "INCLINATION": 50.0007, "RA_OF_ASC_NODE": 304.6223, "ARG_OF_PERICENTER": 323.0492, "MEAN_ANOMALY": 36.9562, "EPHEMERIS_TYPE": 0, "CLASSIFICATION_TYPE": "U", "NORAD_CAT_ID": 66418, "ELEMENT_SET_NO": 999, "REV_AT_EPOCH": 321, "BSTAR": 0.0001355298, "MEAN_MOTION_DOT": 1.51e-06, "MEAN_MOTION_DDOT": 0}, "tle": {"line1": "1 66418U 25258G   25336.59647610  .00000151  00000+0  13553-3 0  9990", "line2": "2 66418  50.0007 304.6223 0012456 323.0492  36.9562 14.23487797  3219"}}, "geometry": {"type": "Point", "coordinates": [7.83394485643234, 47.59277129356446]}}, {"type": "Feature", "properties": {"norad_id": 66419, "name": "HULIANWANG DIGUI 13H", "group": "last-30-days", "lat": 49.35551685081672, "lon": 18.97512872549957, "alt_km": 810.2958215933677, "timestamp": "2025-12-03T10:52:56.221242+00:00", "meta": {"OBJECT_NAME": "HULIANWANG DIGUI 13H", "OBJECT_ID": "2025-258H", "EPOCH": "2025-12-02T15:57:53.935776", "MEAN_MOTION": 14.2350507, "ECCENTRICITY": 0.00120492, "INCLINATION": 50.0005, "RA_OF_ASC_NODE": 304.3157, "ARG_OF_PERICENTER": 324.2803, "MEAN_ANOMALY": 35.7303, "EPHEMERIS_TYPE": 0, "CLASSIFICATION_TYPE": "U", "NORAD_CAT_ID": 66419, "ELEMENT_SET_NO": 999, "REV_AT_EPOCH": 322, "BSTAR": 0.00013725697, "MEAN_MOTION_DOT": 1.55e-06, "MEAN_MOTION_DDOT": 0}, "tle": {"line1": "1 66419U 25258H   25336.66520759  .00000155  00000+0  13726-3 0  9999", "line2": "2 66419  50.0005 304.3157 0012049 324.2803  35.7303 14.23505070  3224"}}, "geometry": {"type": "Point", "coordinates": [18.97512872549957, 49.35551685081672]}}, {"type": "Feature", "properties": {"norad_id": 66420, "name": "HULIANWANG DIGUI 13J", "group": "last-30-days", "lat": 49.949216954569124, "lon": 28.12933872705047, "alt_km": 809.9687058353802, "timestamp": "2025-12-03T10:52:56.221253+00:00", "meta": {"OBJECT_NAME": "HULIANWANG DIGUI 13J", "OBJECT_ID": "2025-258J", "EPOCH": "2025-12-02T14:15:06.892128", "MEAN_MOTION": 14.23472617, "ECCENTRICITY": 0.00114332, "INCLINATION": 50.0026, "RA_OF_ASC_NODE": 304.6152, "ARG_OF_PERICENTER": 331.2582, "MEAN_ANOMALY": 28.77, "EPHEMERIS_TYPE": 0, "CLASSIFICATION_TYPE": "U", "NORAD_CAT_ID": 66420, "ELEMENT_SET_NO": 999, "REV_AT_EPOCH": 320, "BSTAR": 0.00013743568, "MEAN_MOTION_DOT": 1.55e-06, "MEAN_MOTION_DDOT": 0}, "tle": {"line1": "1 66420U 25258J   25336.59382977  .00000155  00000+0  13744-3 0  9991", "line2": "2 66420  50.0026 304.6152 0011433 331.2582  28.7700 14.23472617  3206"}}, "geometry": {"type": "Point", "coordinates": [28.12933872705047, 49.949216954569124]}}, {"type": "Feature", "properties": {"norad_id": 66421, "name": "CZ-12 R/B", "group": "last-30-days", "lat": 49.97650641472068, "lon": 28.73809413038586, "alt_km": 770.5260663077579, "timestamp": "2025-12-03T10:52:56.221264+00:00", "meta": {"OBJECT_NAME": "CZ-12 R/B", "OBJECT_ID": "2025-258K", "EPOCH": "2025-12-02T16:10:10.673760", "MEAN_MOTION": 14.42315918, "ECCENTRICITY": 0.00645723, "INCLINATION": 49.9959, "RA_OF_ASC_NODE": 301.6261, "ARG_OF_PERICENTER": 213.2283, "MEAN_ANOMALY": 146.4576, "EPHEMERIS_TYPE": 0, "CLASSIFICATION_TYPE": "U", "NORAD_CAT_ID": 66421, "ELEMENT_SET_NO": 999, "REV_AT_EPOCH": 326, "BSTAR": 2.8251275e-05, "MEAN_MOTION_DOT": -7.5e-07, "MEAN_MOTION_DDOT": 0}, "tle": {"line1": "1 66421U 25258K   25336.67373465 -.00000075  00000+0  28251-4 0  9995", "line2": "2 66421  49.9959 301.6261 0064572 213.2283 146.4576 14.42315918  3262"}}, "geometry": {"type": "Point", "coordinates": [28.73809413038586, 49.97650641472068]}}, {"type": "Feature", "properties": {"norad_id": 66422, "name": "STARLINK-35617", "group": "last-30-days", "lat": -10.617214114120072, "lon": -66.7328753103455, "alt_km": 423.92073206154146, "timestamp": "2025-12-03T10:52:56.221280+00:00", "meta": {"OBJECT_NAME": "STARLINK-35617", "OBJECT_ID": "2025-259A", "EPOCH": "2025-12-03T04:00:01.998720", "MEAN_MOTION": 15.49140476, "ECCENTRICITY": 0.0001507, "INCLINATION": 43.0003, "RA_OF_ASC_NODE": 103.3344, "ARG_OF_PERICENTER": 274.9287, "MEAN_ANOMALY": 120.3362, "EPHEMERIS_TYPE": 0, "CLASSIFICATION_TYPE": "U", "NORAD_CAT_ID": 66422, "ELEMENT_SET_NO": 999, "REV_AT_EPOCH": 474, "BSTAR": -0.041943, "MEAN_MOTION_DOT": -0.02078226, "MEAN_MOTION_DDOT": 0}, "tle": {"line1": "1 66422U 25259A   25337.16668980 -.02078226  00000+0 -41943-1 0  9997", "line2": "2 66422  43.0003 103.3344 0001507 274.9287 120.3362 15.49140476  4745"}}, "geometry": {"type": "Point", "coordinates": [-66.7328753103455, -10.617214114120072]}}, {"type": "Feature", "properties": {"norad_id": 66423, "name": "STARLINK-35618", "group": "last-30-days", "lat": -13.356340587772161, "lon": -63.58690371872747, "alt_km": 420.3855718701925, "timestamp": "2025-12-03T10:52:56.221292+00:00", "meta": {"OBJECT_NAME": "STARLINK-35618", "OBJECT_ID": "2025-259B", "EPOCH": "2025-12-03T04:00:01.998720", "MEAN_MOTION": 15.5046648, "ECCENTRICITY": 0.0001908, "INCLINATION": 43, "RA_OF_ASC_NODE": 103.3274, "ARG_OF_PERICENTER": 282.4447, "MEAN_ANOMALY": 115.5819, "EPHEMERIS_TYPE": 0, "CLASSIFICATION_TYPE": "U", "NORAD_CAT_ID": 66423, "ELEMENT_SET_NO": 999, "REV_AT_EPOCH": 474, "BSTAR": -0.040077, "MEAN_MOTION_DOT": -0.02082016, "MEAN_MOTION_DDOT": 0}, "tle": {"line1": "1 66423U 25259B   25337.16668980 -.02082016  00000+0 -40077-1 0  9997", "line2": "2 66423  43.0000 103.3274 0001908 282.4447 115.5819 15.50466480  4743"}}, "geometry": {"type": "Point", "coordinates": [-63.58690371872747, -13.356340587772161]}}, {"type": "Feature", "properties": {"norad_id": 66424, "name": "STARLINK-35588", "group": "last-30-days", "lat": -15.119181412369652, "lon": -61.49958346354243, "alt_km": 417.01981680590325, "timestamp": "2025-12-03T10:52:56.221304+00:00", "meta": {"OBJECT_NAME": "STARLINK-35588", "OBJECT_ID": "2025-259C", "EPOCH": "2025-12-03T04:00:01.998720", "MEAN_MOTION": 15.50885796, "ECCENTRICITY": 0.0001222, "INCLINATION": 43.0001, "RA_OF_ASC_NODE": 103.3238, "ARG_OF_PERICENTER": 276.7123, "MEAN_ANOMALY": 123.161, "EPHEMERIS_TYPE": 0, "CLASSIFICATION_TYPE": "U", "NORAD_CAT_ID": 66424, "ELEMENT_SET_NO": 999, "REV_AT_EPOCH": 474, "BSTAR": -0.016207, "MEAN_MOTION_DOT": -0.00875099, "MEAN_MOTION_DDOT": 0}, "tle": {"line1": "1 66424U 25259C   25337.16668980 -.00875099  00000+0 -16207-1 0  9995", "line2": "2 66424  43.0001 103.3238 0001222 276.7123 123.1610 15.50885796  4740"}}, "geometry": {"type": "Point", "coordinates": [-61.49958346354243, -15.119181412369652]}}]}